ONEWEB-0228             
1 48780U 21045P   24057.57852324 -.00000021  00000+0 -90939-4 0  9991
2 48780  87.8942  66.6833 0001986  86.7276 273.4081 13.15548756133679
